CCSDS_OMM_VERS = 2.0
CREATION_DATE  = 
ORIGINATOR     = 

OBJECT_NAME    = SL-14 R/B
OBJECT_ID      = 1991-042B
CENTER_NAME    = EARTH
REF_FRAME      = TEME
TIME_SYSTEM    = UTC
MEAN_ELEMENT_THEORY = SGP/SGP4

EPOCH          = 2026-02-04T12:49:59.417472
MEAN_MOTION    = 14.81797528
ECCENTRICITY   = .0016908
INCLINATION    = 82.4902
RA_OF_ASC_NODE = 251.2804
ARG_OF_PERICENTER = 355.3655
MEAN_ANOMALY   = 4.7399

EPHEMERIS_TYPE = 0
CLASSIFICATION_TYPE = U
NORAD_CAT_ID   = 21423
ELEMENT_SET_NO = 999
REV_AT_EPOCH   = 84816
BSTAR          = .52194E-4
MEAN_MOTION_DOT = .436E-5
MEAN_MOTION_DDOT = 0

CCSDS_OMM_VERS = 2.0
CREATION_DATE  = 
ORIGINATOR     = 

OBJECT_NAME    = ERS-1
OBJECT_ID      = 1991-050A
CENTER_NAME    = EARTH
REF_FRAME      = TEME
TIME_SYSTEM    = UTC
MEAN_ELEMENT_THEORY = SGP/SGP4

EPOCH          = 2026-02-04T11:17:58.251840
MEAN_MOTION    = 14.39421170
ECCENTRICITY   = .0031003
INCLINATION    = 98.7896
RA_OF_ASC_NODE = 52.8701
ARG_OF_PERICENTER = 301.8630
MEAN_ANOMALY   = 57.9541

EPHEMERIS_TYPE = 0
CLASSIFICATION_TYPE = U
NORAD_CAT_ID   = 21574
ELEMENT_SET_NO = 999
REV_AT_EPOCH   = 81095
BSTAR          = .14759E-3
MEAN_MOTION_DOT = .415E-5
MEAN_MOTION_DDOT = 0

CCSDS_OMM_VERS = 2.0
CREATION_DATE  = 
ORIGINATOR     = 

OBJECT_NAME    = ARIANE 40 R/B
OBJECT_ID      = 1991-050F
CENTER_NAME    = EARTH
REF_FRAME      = TEME
TIME_SYSTEM    = UTC
MEAN_ELEMENT_THEORY = SGP/SGP4

EPOCH          = 2026-02-04T04:25:54.212736
MEAN_MOTION    = 14.42867798
ECCENTRICITY   = .00035546
INCLINATION    = 98.2081
RA_OF_ASC_NODE = 88.6670
ARG_OF_PERICENTER = 156.4956
MEAN_ANOMALY   = 203.6398

EPHEMERIS_TYPE = 0
CLASSIFICATION_TYPE = U
NORAD_CAT_ID   = 21610
ELEMENT_SET_NO = 999
REV_AT_EPOCH   = 81416
BSTAR          = .12544965E-3
MEAN_MOTION_DOT = .377E-5
MEAN_MOTION_DDOT = 0

CCSDS_OMM_VERS = 2.0
CREATION_DATE  = 
ORIGINATOR     = 

OBJECT_NAME    = INTERCOSMOS 25
OBJECT_ID      = 1991-086A
CENTER_NAME    = EARTH
REF_FRAME      = TEME
TIME_SYSTEM    = UTC
MEAN_ELEMENT_THEORY = SGP/SGP4

EPOCH          = 2026-02-04T07:15:14.713632
MEAN_MOTION    = 12.11907919
ECCENTRICITY   = .1486579
INCLINATION    = 82.6089
RA_OF_ASC_NODE = 330.1838
ARG_OF_PERICENTER = 188.8648
MEAN_ANOMALY   = 168.3234

EPHEMERIS_TYPE = 0
CLASSIFICATION_TYPE = U
NORAD_CAT_ID   = 21819
ELEMENT_SET_NO = 999
REV_AT_EPOCH   = 49264
BSTAR          = .14389E-3
MEAN_MOTION_DOT = .747E-5
MEAN_MOTION_DDOT = 0

CCSDS_OMM_VERS = 2.0
CREATION_DATE  = 
ORIGINATOR     = 

OBJECT_NAME    = SL-8 R/B
OBJECT_ID      = 1992-008B
CENTER_NAME    = EARTH
REF_FRAME      = TEME
TIME_SYSTEM    = UTC
MEAN_ELEMENT_THEORY = SGP/SGP4

EPOCH          = 2026-02-04T10:33:48.624768
MEAN_MOTION    = 13.75969280
ECCENTRICITY   = .0033593
INCLINATION    = 82.9273
RA_OF_ASC_NODE = 292.5125
ARG_OF_PERICENTER = 226.2356
MEAN_ANOMALY   = 307.4345

EPHEMERIS_TYPE = 0
CLASSIFICATION_TYPE = U
NORAD_CAT_ID   = 21876
ELEMENT_SET_NO = 999
REV_AT_EPOCH   = 70484
BSTAR          = .62473E-4
MEAN_MOTION_DOT = .76E-6
MEAN_MOTION_DDOT = 0

CCSDS_OMM_VERS = 2.0
CREATION_DATE  = 
ORIGINATOR     = 

OBJECT_NAME    = SL-8 R/B
OBJECT_ID      = 1992-020B
CENTER_NAME    = EARTH
REF_FRAME      = TEME
TIME_SYSTEM    = UTC
MEAN_ELEMENT_THEORY = SGP/SGP4

EPOCH          = 2026-02-04T12:36:44.508960
MEAN_MOTION    = 13.75544245
ECCENTRICITY   = .0029556
INCLINATION    = 82.9322
RA_OF_ASC_NODE = 178.3777
ARG_OF_PERICENTER = 32.7329
MEAN_ANOMALY   = 40.4582

EPHEMERIS_TYPE = 0
CLASSIFICATION_TYPE = U
NORAD_CAT_ID   = 21938
ELEMENT_SET_NO = 999
REV_AT_EPOCH   = 69657
BSTAR          = .11112E-3
MEAN_MOTION_DOT = .123E-5
MEAN_MOTION_DDOT = 0

CCSDS_OMM_VERS = 2.0
CREATION_DATE  = 
ORIGINATOR     = 

OBJECT_NAME    = USA 81
OBJECT_ID      = 1992-023A
CENTER_NAME    = EARTH
REF_FRAME      = TEME
TIME_SYSTEM    = UTC
MEAN_ELEMENT_THEORY = SGP/SGP4

EPOCH          = 2026-02-04T09:45:11.543904
MEAN_MOTION    = 14.32354933
ECCENTRICITY   = .0002513
INCLINATION    = 85.0119
RA_OF_ASC_NODE = 150.6317
ARG_OF_PERICENTER = 107.2480
MEAN_ANOMALY   = 252.8987

EPHEMERIS_TYPE = 0
CLASSIFICATION_TYPE = U
NORAD_CAT_ID   = 21949
ELEMENT_SET_NO = 999
REV_AT_EPOCH   = 9002
BSTAR          = .87982E-4
MEAN_MOTION_DOT = .257E-5
MEAN_MOTION_DDOT = 0

CCSDS_OMM_VERS = 2.0
CREATION_DATE  = 
ORIGINATOR     = 

OBJECT_NAME    = COSMOS 2219
OBJECT_ID      = 1992-076A
CENTER_NAME    = EARTH
REF_FRAME      = TEME
TIME_SYSTEM    = UTC
MEAN_ELEMENT_THEORY = SGP/SGP4

EPOCH          = 2026-02-04T11:39:59.972256
MEAN_MOTION    = 14.14077277
ECCENTRICITY   = .0020515
INCLINATION    = 71.0589
RA_OF_ASC_NODE = 87.4837
ARG_OF_PERICENTER = 252.9581
MEAN_ANOMALY   = 106.9294

EPHEMERIS_TYPE = 0
CLASSIFICATION_TYPE = U
NORAD_CAT_ID   = 22219
ELEMENT_SET_NO = 999
REV_AT_EPOCH   = 71368
BSTAR          = -.76786E-4
MEAN_MOTION_DOT = -.194E-5
MEAN_MOTION_DDOT = 0

CCSDS_OMM_VERS = 2.0
CREATION_DATE  = 
ORIGINATOR     = 

OBJECT_NAME    = SL-16 R/B
OBJECT_ID      = 1992-076B
CENTER_NAME    = EARTH
REF_FRAME      = TEME
TIME_SYSTEM    = UTC
MEAN_ELEMENT_THEORY = SGP/SGP4

EPOCH          = 2026-02-04T02:41:41.938944
MEAN_MOTION    = 14.16853529
ECCENTRICITY   = .00118356
INCLINATION    = 70.9983
RA_OF_ASC_NODE = 259.1051
ARG_OF_PERICENTER = 155.4747
MEAN_ANOMALY   = 14.0111

EPHEMERIS_TYPE = 0
CLASSIFICATION_TYPE = U
NORAD_CAT_ID   = 22220
ELEMENT_SET_NO = 999
REV_AT_EPOCH   = 71707
BSTAR          = .16406028E-3
MEAN_MOTION_DOT = .281E-5
MEAN_MOTION_DDOT = 0

CCSDS_OMM_VERS = 2.0
CREATION_DATE  = 
ORIGINATOR     = 

OBJECT_NAME    = COSMOS 2221
OBJECT_ID      = 1992-080A
CENTER_NAME    = EARTH
REF_FRAME      = TEME
TIME_SYSTEM    = UTC
MEAN_ELEMENT_THEORY = SGP/SGP4

EPOCH          = 2026-02-04T06:19:57.028800
MEAN_MOTION    = 14.96060951
ECCENTRICITY   = .0013205
INCLINATION    = 82.5065
RA_OF_ASC_NODE = 311.0914
ARG_OF_PERICENTER = 310.2583
MEAN_ANOMALY   = 49.7483

EPHEMERIS_TYPE = 0
CLASSIFICATION_TYPE = U
NORAD_CAT_ID   = 22236
ELEMENT_SET_NO = 999
REV_AT_EPOCH   = 77579
BSTAR          = .2164E-3
MEAN_MOTION_DOT = .2459E-4
MEAN_MOTION_DDOT = 0

CCSDS_OMM_VERS = 2.0
CREATION_DATE  = 
ORIGINATOR     = 

OBJECT_NAME    = SL-16 R/B
OBJECT_ID      = 1992-093B
CENTER_NAME    = EARTH
REF_FRAME      = TEME
TIME_SYSTEM    = UTC
MEAN_ELEMENT_THEORY = SGP/SGP4

EPOCH          = 2026-02-04T10:53:29.234112
MEAN_MOTION    = 14.15441771
ECCENTRICITY   = .0005045
INCLINATION    = 71.0205
RA_OF_ASC_NODE = 74.0398
ARG_OF_PERICENTER = 328.3300
MEAN_ANOMALY   = 31.7519

EPHEMERIS_TYPE = 0
CLASSIFICATION_TYPE = U
NORAD_CAT_ID   = 22285
ELEMENT_SET_NO = 999
REV_AT_EPOCH   = 70845
BSTAR          = -.85992E-4
MEAN_MOTION_DOT = -.216E-5
MEAN_MOTION_DDOT = 0

CCSDS_OMM_VERS = 2.0
CREATION_DATE  = 
ORIGINATOR     = 

OBJECT_NAME    = COSMOS 2228
OBJECT_ID      = 1992-094A
CENTER_NAME    = EARTH
REF_FRAME      = TEME
TIME_SYSTEM    = UTC
MEAN_ELEMENT_THEORY = SGP/SGP4

EPOCH          = 2026-02-04T10:27:26.843904
MEAN_MOTION    = 14.97034507
ECCENTRICITY   = .0019363
INCLINATION    = 82.5160
RA_OF_ASC_NODE = 269.1533
ARG_OF_PERICENTER = 56.3358
MEAN_ANOMALY   = 303.9707

EPHEMERIS_TYPE = 0
CLASSIFICATION_TYPE = U
NORAD_CAT_ID   = 22286
ELEMENT_SET_NO = 999
REV_AT_EPOCH   = 77108
BSTAR          = .19064E-3
MEAN_MOTION_DOT = .2229E-4
MEAN_MOTION_DDOT = 0

