SL-14 R/B               
1 21423U 91042B   26035.53471548  .00000436  00000+0  52194-4 0  9998
2 21423  82.4902 251.2804 0016908 355.3655   4.7399 14.81797528848168
ERS-1                   
1 21574U 91050A   26035.47081310  .00000415  00000+0  14759-3 0  9992
2 21574  98.7896  52.8701 0031003 301.8630  57.9541 14.39421170810955
ARIANE 40 R/B           
1 21610U 91050F   26035.18465524  .00000377  00000+0  12545-3 0  9992
2 21610  98.2081  88.6670 0003554 156.4956 203.6398 14.42867798814165
INTERCOSMOS 25          
1 21819U 91086A   26035.30225363  .00000747  00000+0  14389-3 0  9990
2 21819  82.6089 330.1838 1486579 188.8648 168.3234 12.11907919492647
SL-8 R/B                
1 21876U 92008B   26035.44014612  .00000076  00000+0  62473-4 0  9999
2 21876  82.9273 292.5125 0033593 226.2356 307.4345 13.75969280704841
SL-8 R/B                
1 21938U 92020B   26035.52551515  .00000123  00000+0  11112-3 0  9995
2 21938  82.9322 178.3777 0029556  32.7329  40.4582 13.75544245696570
USA 81                  
1 21949U 92023A   26035.40638361  .00000257  00000+0  87982-4 0  9999
2 21949  85.0119 150.6317 0002513 107.2480 252.8987 14.32354933 90026
COSMOS 2219             
1 22219U 92076A   26035.48611079 -.00000194  00000+0 -76786-4 0  9995
2 22219  71.0589  87.4837 0020515 252.9581 106.9294 14.14077277713686
SL-16 R/B               
1 22220U 92076B   26035.11229096  .00000281  00000+0  16406-3 0  9998
2 22220  70.9983 259.1051 0011835 155.4747  14.0111 14.16853529717074
COSMOS 2221             
1 22236U 92080A   26035.26385450  .00002459  00000+0  21640-3 0  9998
2 22236  82.5065 311.0914 0013205 310.2583  49.7483 14.96060951775796
SL-16 R/B               
1 22285U 92093B   26035.45381058 -.00000216  00000+0 -85992-4 0  9999
2 22285  71.0205  74.0398 0005045 328.3300  31.7519 14.15441771708455
COSMOS 2228             
1 22286U 92094A   26035.43572736  .00002229  00000+0  19064-3 0  9994
2 22286  82.5160 269.1533 0019363  56.3358 303.9707 14.97034507771087
